{
    "links": {
        "self": "http://www.neowsapp.com/rest/v1/neo/3673470?api_key=iIulBulltgU6a56xZRHN4H3l9WmuAYTsLGpBGhQ2"
    },
    "id": "3673470",
    "neo_reference_id": "3673470",
    "name": "(2014 LX9)",
    "designation": "2014 LX9",
    "nasa_jpl_url": "http://ssd.jpl.nasa.gov/sbdb.cgi?sstr=3673470",
    "absolute_magnitude_h": 23.7,
    "estimated_diameter": {
        "kilometers": {
            "estimated_diameter_min": 0.0483676488,
            "estimated_diameter_max": 0.1081533507
        },
        "meters": {
            "estimated_diameter_min": 48.3676488219,
            "estimated_diameter_max": 108.1533506775
        },
        "miles": {
            "estimated_diameter_min": 0.0300542543,
            "estimated_diameter_max": 0.0672033557
        },
        "feet": {
            "estimated_diameter_min": 158.6865169607,
            "estimated_diameter_max": 354.8338390368
        }
    },
    "is_potentially_hazardous_asteroid": false,
    "close_approach_data": [
        {
            "close_approach_date": "1986-07-08",
            "close_approach_date_full": "1986-Jul-08 10:52",
            "epoch_date_close_approach": 521203920000,
            "relative_velocity": {
                "kilometers_per_second": "5.7685188851",
                "kilometers_per_hour": "20766.6679862676",
                "miles_per_hour": "12903.5998940227"
            },
            "miss_distance": {
                "astronomical": "0.1640014599",
                "lunar": "63.7965679011",
                "kilometers": "24534269.077930413",
                "miles": "15244887.8901811794"
            },
            "orbiting_body": "Earth"
        },
        {
            "close_approach_date": "2014-07-09",
            "close_approach_date_full": "2014-Jul-09 19:23",
            "epoch_date_close_approach": 1404933780000,
            "relative_velocity": {
                "kilometers_per_second": "5.8958937945",
                "kilometers_per_hour": "21225.2176601532",
                "miles_per_hour": "13188.524828888"
            },
            "miss_distance": {
                "astronomical": "0.1785887034",
                "lunar": "69.4710056226",
                "kilometers": "26716489.634701758",
                "miles": "16600856.8670419404"
            },
            "orbiting_body": "Earth"
        },
        {
            "close_approach_date": "2042-07-10",
            "close_approach_date_full": "2042-Jul-10 01:56",
            "epoch_date_close_approach": 2288570160000,
            "relative_velocity": {
                "kilometers_per_second": "5.8524914149",
                "kilometers_per_hour": "21068.9690937611",
                "miles_per_hour": "13091.4380460651"
            },
            "miss_distance": {
                "astronomical": "0.1719820842",
                "lunar": "66.9010307538",
                "kilometers": "25728153.474480654",
                "miles": "15986733.2543708652"
            },
            "orbiting_body": "Earth"
        },
        {
            "close_approach_date": "2070-07-11",
            "close_approach_date_full": "2070-Jul-11 18:51",
            "epoch_date_close_approach": 3172330260000,
            "relative_velocity": {
                "kilometers_per_second": "6.605600211",
                "kilometers_per_hour": "23780.1607595063",
                "miles_per_hour": "14776.0671119277"
            },
            "miss_distance": {
                "astronomical": "0.2448335833",
                "lunar": "95.2402639037",
                "kilometers": "36626582.566147571",
                "miles": "22758703.0715196398"
            },
            "orbiting_body": "Earth"
        },
        {
            "close_approach_date": "2179-07-07",
            "close_approach_date_full": "2179-Jul-07 23:28",
            "epoch_date_close_approach": 6611671680000,
            "relative_velocity": {
                "kilometers_per_second": "6.7984520359",
                "kilometers_per_hour": "24474.427329119",
                "miles_per_hour": "15207.4573590295"
            },
            "miss_distance": {
                "astronomical": "0.2055086513",
                "lunar": "79.9428653557",
                "kilometers": "30743656.501052731",
                "miles": "19103222.3215644478"
            },
            "orbiting_body": "Earth"
        }
    ],
    "orbital_data": {
        "orbit_id": "10",
        "orbit_determination_date": "2017-04-06 08:40:11",
        "first_observation_date": "2014-06-02",
        "last_observation_date": "2014-07-31",
        "data_arc_in_days": 59,
        "observations_used": 23,
        "orbit_uncertainty": "6",
        "minimum_orbit_intersection": ".164024",
        "jupiter_tisserand_invariant": "3.575",
        "epoch_osculation": "2459000.5",
        "eccentricity": ".4465943738430349",
        "semi_major_axis": "2.130846576357908",
        "inclination": "8.22542861404899",
        "ascending_node_longitude": "99.76008076363109",
        "orbital_period": "1136.126522717249",
        "perihelion_distance": "1.179222483833773",
        "perihelion_argument": "188.6901778609117",
        "aphelion_distance": "3.082470668882043",
        "perihelion_time": "2459126.011127543720",
        "mean_anomaly": "320.2297763389296",
        "mean_motion": ".3168661172868281",
        "equinox": "J2000",
        "orbit_class": {
            "orbit_class_type": "AMO",
            "orbit_class_description": "Near-Earth asteroid orbits similar to that of 1221 Amor",
            "orbit_class_range": "1.017 AU < q (perihelion) < 1.3 AU"
        }
    },
    "is_sentry_object": false
}